IRIDIUM 33 DEB          
1 35484U 97051QE  26050.19184175  .00037506  00000+0  25740-2 0  9995
2 35484  86.3587 320.5585 0011587 239.1626 120.8470 15.05777687630433
IRIDIUM 33 DEB          
1 35618U 97051QQ  26060.43577164  .00001974  00000+0  47356-3 0  9994
2 35618  86.3514 319.0948 0030155 108.9644 251.4834 14.52702207665365
IRIDIUM 33 DEB          
1 35620U 97051QS  26059.76607762  .00007934  00000+0  22480-2 0  9991
2 35620  86.3903 184.5043 0131255   0.7677 359.3698 14.40458510610884
IRIDIUM 33 DEB          
1 35622U 97051QU  26059.21383278  .00041596  00000+0  23297-2 0  9995
2 35622  86.1943 225.1166 0006092 336.3474 148.3739 15.13229248885284
IRIDIUM 33 DEB          
1 35628U 97051RA  26058.04181152  .00008239  00000+0  13981-2 0  9994
2 35628  86.3598 335.0172 0014295  68.7722 291.5019 14.69039807875665
IRIDIUM 33 DEB          
1 35680U 97051RJ  26050.80058477  .00007331  00000+0  29266-2 0  9996
2 35680  86.1059 350.9245 0154943  58.9016 333.8836 14.22025049616822
IRIDIUM 33 DEB          
1 35797U 97051SF  26060.39965620  .00013868  00000+0  16026-2 0  9999
2 35797  86.3336 293.7608 0009152 244.0916 115.9366 14.85465697885074
IRIDIUM 33 DEB          
1 35806U 97051SQ  26057.09248662  .00004585  00000+0  98554-3 0  9996
2 35806  86.3482 347.4341 0012892 164.0388 196.1230 14.58332780874229
IRIDIUM 33 DEB          
1 35809U 97051ST  26058.43219859  .00009840  00000+0  13676-2 0  9994
2 35809  86.3267 300.3751 0012414 352.1922   7.9102 14.77713957879390
IRIDIUM 33 DEB          
1 35846U 97051SW  26060.31697757  .00002652  00000+0  77738-3 0  9996
2 35846  86.3764  25.2843 0015457 278.5461  81.3988 14.43513546724625
IRIDIUM 33 DEB          
1 35848U 97051SY  26059.02862887  .00013031  00000+0  16801-2 0  9998
2 35848  86.3920 341.3116 0005901 320.9506  39.1289 14.80938939678330
IRIDIUM 33 DEB          
1 35850U 97051TA  26059.96977532  .00011591  00000+0  14879-2 0  9990
2 35850  86.3498 308.6050 0007883 300.3336  59.7105 14.81111763725146
IRIDIUM 33 DEB          
1 35915U 97051TY  26055.01417363  .00011798  00000+0  14390-2 0  9992
2 35915  86.3414 309.4145 0009770 317.6138  42.4329 14.83232039 91716
IRIDIUM 33 DEB          
1 35918U 97051UB  26057.28688838  .00004159  00000+0  10220-2 0  9994
2 35918  86.3995  43.3510 0023543 281.1674 144.2213 14.51967703863030
IRIDIUM 33 DEB          
1 35929U 97051UN  26058.33159666  .00038210  00000+0  24082-2 0  9991
2 35929  86.3417 276.1631 0015437 101.2586 259.0387 15.08878455889323
IRIDIUM 33 DEB          
1 36011U 97051US  26059.62380968  .00001820  00000+0  55230-3 0  9995
2 36011  86.3453   1.9671 0017858 332.2396 151.9649 14.41635105656623
IRIDIUM 33 DEB          
1 36012U 97051UT  26057.55933074  .00005376  00000+0  19633-2 0  9994
2 36012  86.4416 276.9242 0218003  20.4232 340.5505 14.20504638665600
IRIDIUM 33 DEB          
1 36028U 97051VK  26049.34502741  .00018186  00000+0  14812-2 0  9999
2 36028  86.3171 274.8047 0016101 155.8717 204.3272 14.99308306881361
IRIDIUM 33 DEB          
1 36080U 97051VM  26056.50340220  .00001938  00000+0  52714-3 0  9996
2 36080  86.3236 335.4170 0014825 275.8181  84.1332 14.47006283484958
IRIDIUM 33 DEB          
1 36083U 97051VQ  26060.12933973  .00002328  00000+0  67925-3 0  9999
2 36083  86.3483   0.3993 0025468 332.5593  27.4261 14.43570420865802
IRIDIUM 33 DEB          
1 36390U 97051VU  26060.28946878  .00006003  00000+0  88857-3 0  9996
2 36390  86.2859 263.3476 0027954 255.4751 104.3366 14.74753978674193
IRIDIUM 33 DEB          
1 36483U 97051VZ  26056.63614572  .00001873  00000+0  51909-3 0  9994
2 36483  86.3812  20.4101 0007000 234.8466 125.2081 14.46131522662284
IRIDIUM 33 DEB          
1 36490U 97051WG  26060.48406351  .00014249  00000+0  19433-2 0  9990
2 36490  86.3683 334.8899 0004534 105.0234 255.1488 14.78574778876476
IRIDIUM 33 DEB          
1 36493U 97051WK  26059.06648870  .00007173  00000+0  12878-2 0  9993
2 36493  86.3608 337.3012 0013108  82.3547 277.9154 14.66545736756515
IRIDIUM 33 DEB          
1 37548U 97051XH  26058.61648586  .00004301  00000+0  10559-2 0  9993
2 37548  86.3541   9.8892 0022794 300.6162  59.2795 14.52027279666479
IRIDIUM 33 DEB          
1 37550U 97051XK  26060.07640092  .00008246  00000+0  14140-2 0  9995
2 37550  86.3813 349.1253 0002140 143.8998 216.2362 14.68650676874827
