OBJECT_NAME,OBJECT_ID,EPOCH,MEAN_MOTION,ECCENTRICITY,INCLINATION,RA_OF_ASC_NODE,ARG_OF_PERICENTER,MEAN_ANOMALY,EPHEMERIS_TYPE,CLASSIFICATION_TYPE,NORAD_CAT_ID,ELEMENT_SET_NO,REV_AT_EPOCH,BSTAR,MEAN_MOTION_DOT,MEAN_MOTION_DDOT
IRIDIUM 33 DEB,1997-051QE,2026-02-19T04:36:15.127200,15.05777687,.0011587,86.3587,320.5585,239.1626,120.8470,0,U,35484,999,63043,.2574E-2,.37506E-3,0
IRIDIUM 33 DEB,1997-051QQ,2026-03-01T10:27:30.669696,14.52702207,.0030155,86.3514,319.0948,108.9644,251.4834,0,U,35618,999,66536,.47356E-3,.1974E-4,0
IRIDIUM 33 DEB,1997-051QS,2026-02-28T18:23:09.106368,14.40458510,.0131255,86.3903,184.5043,0.7677,359.3698,0,U,35620,999,61088,.22479854E-2,.7934E-4,0
IRIDIUM 33 DEB,1997-051QU,2026-02-28T05:07:55.152192,15.13229248,.0006092,86.1943,225.1166,336.3474,148.3739,0,U,35622,999,88528,.23297E-2,.41596E-3,0
IRIDIUM 33 DEB,1997-051RA,2026-02-27T01:00:12.515328,14.69039807,.00142954,86.3598,335.0172,68.7722,291.5019,0,U,35628,999,87566,.13981421E-2,.8239E-4,0
IRIDIUM 33 DEB,1997-051RJ,2026-02-19T19:12:50.524128,14.22025049,.01549434,86.1059,350.9245,58.9016,333.8836,0,U,35680,999,61682,.29266259E-2,.7331E-4,0
IRIDIUM 33 DEB,1997-051SF,2026-03-01T09:35:30.295680,14.85465697,.0009152,86.3336,293.7608,244.0916,115.9366,0,U,35797,999,88507,.16026E-2,.13868E-3,0
IRIDIUM 33 DEB,1997-051SQ,2026-02-26T02:13:10.843968,14.58332780,.0012892,86.3482,347.4341,164.0388,196.1230,0,U,35806,999,87422,.98554448E-3,.4585E-4,0
IRIDIUM 33 DEB,1997-051ST,2026-02-27T10:22:21.958176,14.77713957,.00124141,86.3267,300.3751,352.1922,7.9102,0,U,35809,999,87939,.13675999E-2,.984E-4,0
IRIDIUM 33 DEB,1997-051SW,2026-03-01T07:36:26.862048,14.43513546,.0015457,86.3764,25.2843,278.5461,81.3988,0,U,35846,999,72462,.77738E-3,.2652E-4,0
IRIDIUM 33 DEB,1997-051SY,2026-02-28T00:41:13.534368,14.80938939,.00059015,86.3920,341.3116,320.9506,39.1289,0,U,35848,999,67833,.16800596E-2,.13031E-3,0
IRIDIUM 33 DEB,1997-051TA,2026-02-28T23:16:28.587648,14.81111763,.0007883,86.3498,308.6050,300.3336,59.7105,0,U,35850,999,72514,.14879E-2,.11591E-3,0
IRIDIUM 33 DEB,1997-051TY,2026-02-24T00:20:24.601632,14.83232039,.00097703,86.3414,309.4145,317.6138,42.4329,0,U,35915,999,9171,.14389833E-2,.11798E-3,0
IRIDIUM 33 DEB,1997-051UB,2026-02-26T06:53:07.156032,14.51967703,.0023543,86.3995,43.3510,281.1674,144.2213,0,U,35918,999,86303,.1022E-2,.4159E-4,0
IRIDIUM 33 DEB,1997-051UN,2026-02-27T07:57:29.951424,15.08878455,.00154372,86.3417,276.1631,101.2586,259.0387,0,U,35929,999,88932,.24081873E-2,.3821E-3,0
IRIDIUM 33 DEB,1997-051US,2026-02-28T14:58:17.156352,14.41635105,.0017858,86.3453,1.9671,332.2396,151.9649,0,U,36011,999,65662,.55229581E-3,.182E-4,0
IRIDIUM 33 DEB,1997-051UT,2026-02-26T13:25:26.175936,14.20504638,.0218003,86.4416,276.9242,20.4232,340.5505,0,U,36012,999,66560,.19633E-2,.5376E-4,0
IRIDIUM 33 DEB,1997-051VK,2026-02-18T08:16:50.368224,14.99308306,.0016101,86.3171,274.8047,155.8717,204.3272,0,U,36028,999,88136,.14812E-2,.18186E-3,0
IRIDIUM 33 DEB,1997-051VM,2026-02-25T12:04:53.950080,14.47006283,.00148253,86.3236,335.4170,275.8181,84.1332,0,U,36080,999,48495,.52714098E-3,.1938E-4,0
IRIDIUM 33 DEB,1997-051VQ,2026-03-01T03:06:14.952672,14.43570420,.00254684,86.3483,0.3993,332.5593,27.4261,0,U,36083,999,86580,.67924529E-3,.2328E-4,0
IRIDIUM 33 DEB,1997-051VU,2026-03-01T06:56:50.102592,14.74753978,.0027954,86.2859,263.3476,255.4751,104.3366,0,U,36390,999,67419,.88857E-3,.6003E-4,0
IRIDIUM 33 DEB,1997-051VZ,2026-02-25T15:16:02.990208,14.46131522,.00070006,86.3812,20.4101,234.8466,125.2081,0,U,36483,999,66228,.51908604E-3,.1873E-4,0
IRIDIUM 33 DEB,1997-051WG,2026-03-01T11:37:03.087264,14.78574778,.0004534,86.3683,334.8899,105.0234,255.1488,0,U,36490,999,87647,.19433E-2,.14249E-3,0
IRIDIUM 33 DEB,1997-051WK,2026-02-28T01:35:44.623680,14.66545736,.0013108,86.3608,337.3012,82.3547,277.9154,0,U,36493,999,75651,.1287788E-2,.7173E-4,0
IRIDIUM 33 DEB,1997-051XH,2026-02-27T14:47:44.378304,14.52027279,.00227949,86.3541,9.8892,300.6162,59.2795,0,U,37548,999,66647,.10559446E-2,.4301E-4,0
IRIDIUM 33 DEB,1997-051XK,2026-03-01T01:50:01.039488,14.68650676,.00021408,86.3813,349.1253,143.8998,216.2362,0,U,37550,999,87482,.14140176E-2,.8246E-4,0
